index,countryCode,countryName,cityCode,urbanAgglomeration,latitude,longitude,radius,yearMotorway,yearHST
144,124,Canada,20370,Calgary,51.044072,-114.059314,,,
145,124,Canada,20373,Edmonton,53.543409,-113.503721,,,
146,124,Canada,20376,Halifax,44.647712,-63.581778,,,
147,124,Canada,20377,Hamilton,43.249459,-79.847539,,,
148,124,Canada,20381,Kitchener,43.42537,-80.5112,,,
149,124,Canada,20382,London,42.98339,-81.23304,,,
150,124,Canada,20384,Montréal,45.50884,-73.58781,,,
151,124,Canada,20386,Oshawa,43.90012,-78.84957,,,
152,124,Canada,20387,Ottawa-Gatineau,45.416598,-75.697997,,,
153,124,Canada,20390,Québec,46.81228,-71.21454,,,
154,124,Canada,20398,St. Catharines-Niagara,43.16681,-79.24958,,,
155,124,Canada,20402,Toronto,43.70011,-79.4163,,,
156,124,Canada,20404,Vancouver,49.24966,-123.11934,,,
157,124,Canada,20405,Victoria,48.4329,-123.3693,,,
158,124,Canada,20406,Windsor,42.281051,-83.007948,,,
159,124,Canada,20407,Winnipeg,49.895451,-97.129437,,,
1513,840,United States of America,22905,Akron,41.08144,-81.51901,,,
1514,840,United States of America,22907,Albany,42.66,-73.78,,,
1515,840,United States of America,22908,Albuquerque,35.110703,-106.609991,,,
1516,840,United States of America,22910,Allentown-Bethlehem,40.60908,-75.475962,,,
1517,840,United States of America,22917,Ann Arbor,42.27756,-83.74088,,,
1518,840,United States of America,22919,Antioch,38,-121.81,,,
1519,840,United States of America,22921,Asheville,35.579862,-82.55581,,,
1520,840,United States of America,22922,Atlanta,33.76,-84.4,,,
1521,840,United States of America,22924,Augusta-Richmond County,33.467086,-81.990199,,,
1522,840,United States of America,22926,Austin,30.27,-97.74,,,
1523,840,United States of America,22927,Bakersfield,35.357276,-119.031661,,,
1524,840,United States of America,22928,Baltimore,39.29038,-76.61219,,,
1525,840,United States of America,22929,Baton Rouge,30.45075,-91.15455,,,
1526,840,United States of America,22936,Birmingham,33.515744,-86.801056,,,
1527,840,United States of America,22938,Boise City,43.619505,-116.212301,,,
1528,840,United States of America,23075,Bonita Springs-Naples,26.33981,-81.7787,,,
1529,840,United States of America,22939,Boston,42.347919,-71.06453,,,
1530,840,United States of America,22942,Bridgeport-Stamford,41.16704,-73.20483,,,
1531,840,United States of America,22947,Buffalo,42.887934,-78.871593,,,
1532,840,United States of America,22993,Cape Coral,26.6396,-81.982471,,,
1533,840,United States of America,22952,Charleston-North Charleston,32.789295,-79.986255,,,
1534,840,United States of America,22954,Charlotte,35.22709,-80.84313,,,
1535,840,United States of America,22955,Chattanooga,35.045473,-85.267255,,,
1536,840,United States of America,22956,Chicago,41.85003,-87.65005,,,
1537,840,United States of America,22957,Cincinnati,39.104722,-84.518783,,,
1538,840,United States of America,22959,Cleveland,41.498587,-81.687402,,,
1539,840,United States of America,22960,Colorado Springs,38.863443,-104.791914,,,
1540,840,United States of America,22962,Columbia South Carolina,33.999477,-81.036538,,,
1541,840,United States of America,22963,Columbus Ohio,39.962205,-83.000186,,,
1542,840,United States of America,23426,Concord,37.97798,-122.03107,,,
1543,840,United States of America,22965,Corpus Christi,27.742857,-97.401927,,,
1544,840,United States of America,22966,Dallas-Fort Worth,32.72541,-97.32085,,,
1545,840,United States of America,22969,Dayton,39.758406,-84.192906,,,
1546,840,United States of America,22970,Daytona Beach-Port Orange,29.1383165,-80.9956105,,,
1547,840,United States of America,23046,Denton-Lewisville,33.04669,-96.994063,,,
1548,840,United States of America,22972,Denver-Aurora,39.734283,-104.983138,,,
1549,840,United States of America,22973,Des Moines,41.60054,-93.60911,,,
1550,840,United States of America,22974,Detroit,42.387137,-83.102641,,,
1551,840,United States of America,22976,Durham,35.988644,-78.907167,,,
1552,840,United States of America,22980,El Paso,31.7775757,-106.4424559,,,
1553,840,United States of America,22987,Fayetteville,35.066663,-78.917579,,,
1554,840,United States of America,22988,Fayetteville-Springdale,36.186711,-94.129539,,,
1555,840,United States of America,22990,Flint,43.027577,-83.693996,,,
1556,840,United States of America,22997,Fort Wayne,41.078348,-85.126546,,,
1557,840,United States of America,22998,Fresno,36.754529,-119.771119,,,
1558,840,United States of America,23002,Grand Rapids,42.956393,-85.664883,,,
1559,840,United States of America,23004,Greensboro,36.073233,-79.791751,,,
1560,840,United States of America,23005,Greenville,34.849805,-82.397334,,,
1561,840,United States of America,23008,Harrisburg,40.271709,-76.884956,,,
1562,840,United States of America,23009,Hartford,41.7637111,-72.6850932,,,
1563,840,United States of America,23013,Honolulu,21.30895,-157.826182,,,
1564,840,United States of America,23014,Houston,29.7601927,-95.3693896,,,
1565,840,United States of America,23016,Huntsville,34.729703,-86.589848,,,
1566,840,United States of America,23017,Indianapolis,39.790942,-86.147685,,,
1567,840,United States of America,23093,Indio-Cathedral City-Palm Springs,33.719871,-116.231889,,,
1568,840,United States of America,23019,Jackson Mississippi,32.295719,-90.184034,,,
1569,840,United States of America,23020,Jacksonville Florida,30.33218,-81.65565,,,
1570,840,United States of America,23028,Kansas City,39.11417,-94.62746,,,
1571,840,United States of America,23440,Kissimmee,28.30468,-81.41667,,,
1572,840,United States of America,23032,Knoxville,35.960749,-83.927657,,,
1573,840,United States of America,23038,Lancaster,40.0378755,-76.3055144,,,
1574,840,United States of America,23039,Lancaster-Palmdale,34.686854,-118.150931,,,
1575,840,United States of America,23040,Lansing,42.728422,-84.551367,,,
1576,840,United States of America,23043,Las Vegas,36.169941,-115.13983,,,
1577,840,United States of America,23047,Lexington-Fayette,38.029632,-84.494642,,,
1578,840,United States of America,23049,Little Rock,34.742048,-92.275359,,,
1579,840,United States of America,23052,Los Angeles-Long Beach-Santa Ana,34.031656,-118.241716,,,
1580,840,United States of America,23053,Louisville,38.24194,-85.763064,,,
1581,840,United States of America,23058,Madison,43.069698,-89.400114,,,
1582,840,United States of America,23061,McAllen,26.216263,-98.236385,,,
1583,840,United States of America,23063,Memphis,35.140814,-90.047458,,,
1584,840,United States of America,23064,Miami,25.789097,-80.204044,,,
1585,840,United States of America,23067,Milwaukee,43.0389,-87.90647,,,
1586,840,United States of America,23068,Minneapolis-St. Paul,44.97307,-93.269895,,,
1587,840,United States of America,23453,Mission Viejo,33.60002,-117.672,,,
1588,840,United States of America,23069,Mobile,30.69436,-88.04305,,,
1589,840,United States of America,23070,Modesto,37.661479,-120.994543,,,
1590,840,United States of America,23077,Nashville-Davidson,36.160996,-86.783045,,,
1591,840,United States of America,23080,New Haven,41.3019,-72.929857,,,
1592,840,United States of America,23082,New Orleans,29.95465,-90.07507,,,
1593,840,United States of America,23083,New York-Newark,40.717042,-74.003663,,,
1594,840,United States of America,23087,Ogden-Layton,41.223,-111.97383,,,
1595,840,United States of America,23088,Oklahoma City,35.4675,-97.516389,,,
1596,840,United States of America,23090,Omaha,41.25861111,-95.93777778,,,
1597,840,United States of America,23091,Orlando,28.53834,-81.37924,,,
1598,840,United States of America,23092,Oxnard,34.1975,-119.17705,,,
1599,840,United States of America,23062,Palm Bay-Melbourne,28.05902778,-80.59833333,,,
1600,840,United States of America,23095,Pensacola,30.42131,-87.21691,,,
1601,840,United States of America,23098,Philadelphia,39.95234,-75.16379,,,
1602,840,United States of America,23099,Phoenix-Mesa,33.449454,-112.074743,,,
1603,840,United States of America,23100,Pittsburgh,40.441823,-79.98823,,,
1604,840,United States of America,23465,Port St. Lucie,27.29393,-80.35033,,,
1605,840,United States of America,23102,Portland,45.521525,-122.679933,,,
1606,840,United States of America,23105,Poughkeepsie-Newburgh,41.60180556,-73.96555556,,,
1607,840,United States of America,23106,Providence,41.824037,-71.417702,,,
1608,840,United States of America,23107,Provo-Orem,40.23384,-111.65853,,,
1609,840,United States of America,23110,Raleigh,35.778897,-78.637471,,,
1610,840,United States of America,23113,Reno,39.52963,-119.8138,,,
1611,840,United States of America,23115,Richmond,37.543207,-77.438159,,,
1612,840,United States of America,23116,Riverside-San Bernardino,33.95335,-117.39616,,,
1613,840,United States of America,23118,Rochester,43.156924,-77.604633,,,
1614,840,United States of America,23119,Rockford,42.271254,-89.095727,,,
1615,840,United States of America,23120,Round Lake Beach-McHenry-Grayslake,42.354045,-88.100529,,,
1616,840,United States of America,23121,Sacramento,38.58157,-121.4944,,,
1617,840,United States of America,23126,Salt Lake City,40.7547,-111.892622,,,
1618,840,United States of America,23128,San Antonio,29.424113,-98.493536,,,
1619,840,United States of America,23129,San Diego,32.71533,-117.15726,,,
1620,840,United States of America,23130,San Francisco-Oakland,37.759881,-122.437392,,,
1621,840,United States of America,23131,San Jose,37.33939,-121.89496,,,
1622,840,United States of America,23469,Santa Clarita,34.39166,-118.54259,,,
1623,840,United States of America,23135,Santa Rosa,38.44047,-122.71443,,,
1624,840,United States of America,23136,Sarasota-Bradenton,27.33643,-82.53065,,,
1625,840,United States of America,23138,Scranton,41.410629,-75.667411,,,
1626,840,United States of America,23140,Seattle,47.626353,-122.333144,,,
1627,840,United States of America,23141,Shreveport,32.468003,-93.771115,,,
1628,840,United States of America,23147,Spokane,47.673341,-117.410271,,,
1629,840,United States of America,23150,Springfield Massachusett,42.10148,-72.5898,,,
1630,840,United States of America,23151,Springfield Missouri,37.208264,-93.291368,,,
1631,840,United States of America,23152,St. Louis,38.628612,-90.197197,,,
1632,840,United States of America,23155,Stockton,37.9577016,-121.2907796,,,
1633,840,United States of America,23157,Syracuse,43.046788,-76.147496,,,
1634,840,United States of America,23160,Tampa-St. Petersburg,27.94752,-82.45843,,,
1635,840,United States of America,23476,Temecula-Murrieta,33.53635,-117.16305,,,
1636,840,United States of America,23479,The Woodlands,30.16299,-95.45577,,,
1637,840,United States of America,23163,Toledo,41.656529,-83.549856,,,
1638,840,United States of America,23165,Trenton,40.2170534,-74.7429384,,,
1639,840,United States of America,23166,Tucson,32.214476,-110.918192,,,
1640,840,United States of America,23167,Tulsa,36.131294,-95.937332,,,
1641,840,United States of America,23011,Victorville-Hesperia-Apple Valley,34.533991,-117.295848,,,
1642,840,United States of America,23084,Virginia Beach,36.834498,-76.087179,,,
1643,840,United States of America,23174,Washington D.C.,38.89511,-77.03637,,,
1644,840,United States of America,23179,Wichita,37.688848,-97.336226,,,
1645,840,United States of America,23183,Winston-Salem,36.102764,-80.260491,,,
1646,840,United States of America,23185,Worcester,42.262599,-71.802347,,,
1647,840,United States of America,23188,Youngstown,41.096258,-80.649299,,,
